{"type": "FeatureCollection", "features": [ {"type": "Feature", "properties": {"norad_id": 30283, "name": "FENGYUN 1C DEB", "group": "fengyun-1c-debris", "lat": 55.80455319899025, "lon": -27.988356447636654, "alt_km": 761.976932128573, "timestamp": "2025-12-17T17:50:19.525970+00:00", "meta": {"OBJECT_NAME": "FENGYUN 1C DEB", "OBJECT_ID": "1999-025YU", "EPOCH": "2025-12-16T22:59:12.948000", "MEAN_MOTION": 14.01976282, "ECCENTRICITY": 0.01847405, "INCLINATION": 98.8668, "RA_OF_ASC_NODE": 344.5288, "ARG_OF_PERICENTER": 31.5985, "MEAN_ANOMALY": 22.0499, "EPHEMERIS_TYPE": 0, "CLASSIFICATION_TYPE": "U", "NORAD_CAT_ID": 30283, "ELEMENT_SET_NO": 999, "REV_AT_EPOCH": 96750, "BSTAR": 6.8143053e-05, "MEAN_MOTION_DOT": 7.8e-07, "MEAN_MOTION_DDOT": 0}, "tle": {"line1": "1 30283U 99025YU  25350.95778875  .00000078  00000+0  68143-4 0  9992", "line2": "2 30283  98.8668 344.5288 0184740  31.5985  22.0499 14.01976282967505"}}, "geometry": {"type": "Point", "coordinates": [-27.988356447636654, 55.80455319899025]}}, {"type": "Feature", "properties": {"norad_id": 30284, "name": "FENGYUN 1C DEB", "group": "fengyun-1c-debris", "lat": 37.64369731427461, "lon": 53.383725245964925, "alt_km": 777.9867044730781, "timestamp": "2025-12-17T17:50:19.525980+00:00", "meta": {"OBJECT_NAME": "FENGYUN 1C DEB", "OBJECT_ID": "1999-025YV", "EPOCH": "2025-12-17T04:31:30.772704", "MEAN_MOTION": 14.28793884, "ECCENTRICITY": 0.0037504, "INCLINATION": 98.7207, "RA_OF_ASC_NODE": 59.6284, "ARG_OF_PERICENTER": 96.2167, "MEAN_ANOMALY": 330.6619, "EPHEMERIS_TYPE": 0, "CLASSIFICATION_TYPE": "U", "NORAD_CAT_ID": 30284, "ELEMENT_SET_NO": 999, "REV_AT_EPOCH": 97579, "BSTAR": 0.0011020625, "MEAN_MOTION_DOT": 2.754e-05, "MEAN_MOTION_DDOT": 0}, "tle": {"line1": "1 30284U 99025YV  25351.18855061  .00002754  00000+0  11021-2 0  9996", "line2": "2 30284  98.7207  59.6284 0037504  96.2167 330.6619 14.28793884975795"}}, "geometry": {"type": "Point", "coordinates": [53.383725245964925, 37.64369731427461]}}, {"type": "Feature", "properties": {"norad_id": 30286, "name": "FENGYUN 1C DEB", "group": "fengyun-1c-debris", "lat": -0.7555501700407, "lon": 175.8411191164352, "alt_km": 830.793494893137, "timestamp": "2025-12-17T17:50:19.525991+00:00", "meta": {"OBJECT_NAME": "FENGYUN 1C DEB", "OBJECT_ID": "1999-025YX", "EPOCH": "2025-12-17T00:16:51.563424", "MEAN_MOTION": 14.12724864, "ECCENTRICITY": 0.00648524, "INCLINATION": 98.6899, "RA_OF_ASC_NODE": 355.2469, "ARG_OF_PERICENTER": 120.7619, "MEAN_ANOMALY": 300.6694, "EPHEMERIS_TYPE": 0, "CLASSIFICATION_TYPE": "U", "NORAD_CAT_ID": 30286, "ELEMENT_SET_NO": 999, "REV_AT_EPOCH": 97519, "BSTAR": 8.8422294e-05, "MEAN_MOTION_DOT": 1.25e-06, "MEAN_MOTION_DDOT": 0}, "tle": {"line1": "1 30286U 99025YX  25351.01170791  .00000125  00000+0  88422-4 0  9991", "line2": "2 30286  98.6899 355.2469 0064852 120.7619 300.6694 14.12724864975193"}}, "geometry": {"type": "Point", "coordinates": [175.8411191164352, -0.7555501700407]}}, {"type": "Feature", "properties": {"norad_id": 30287, "name": "FENGYUN 1C DEB", "group": "fengyun-1c-debris", "lat": -41.7663184779113, "lon": 33.25404384239763, "alt_km": 776.5210267401571, "timestamp": "2025-12-17T17:50:19.526001+00:00", "meta": {"OBJECT_NAME": "FENGYUN 1C DEB", "OBJECT_ID": "1999-025YY", "EPOCH": "2025-12-17T02:31:02.210016", "MEAN_MOTION": 13.6860306, "ECCENTRICITY": 0.04131117, "INCLINATION": 98.6374, "RA_OF_ASC_NODE": 24.879, "ARG_OF_PERICENTER": 0.7053, "MEAN_ANOMALY": 56.4233, "EPHEMERIS_TYPE": 0, "CLASSIFICATION_TYPE": "U", "NORAD_CAT_ID": 30287, "ELEMENT_SET_NO": 999, "REV_AT_EPOCH": 93918, "BSTAR": 0.00083681914, "MEAN_MOTION_DOT": 1.267e-05, "MEAN_MOTION_DDOT": 0}, "tle": {"line1": "1 30287U 99025YY  25351.10488669  .00001267  00000+0  83682-3 0  9998", "line2": "2 30287  98.6374  24.8790 0413111   0.7053  56.4233 13.68603060939181"}}, "geometry": {"type": "Point", "coordinates": [33.25404384239763, -41.7663184779113]}}, {"type": "Feature", "properties": {"norad_id": 30288, "name": "FENGYUN 1C DEB", "group": "fengyun-1c-debris", "lat": -46.687075182172734, "lon": 83.92609743240448, "alt_km": 774.7660028413575, "timestamp": "2025-12-17T17:50:19.526012+00:00", "meta": {"OBJECT_NAME": "FENGYUN 1C DEB", "OBJECT_ID": "1999-025YZ", "EPOCH": "2025-12-17T04:54:10.116000", "MEAN_MOTION": 14.32625035, "ECCENTRICITY": 0.00209497, "INCLINATION": 99.3959, "RA_OF_ASC_NODE": 73.2269, "ARG_OF_PERICENTER": 307.9744, "MEAN_ANOMALY": 106.2583, "EPHEMERIS_TYPE": 0, "CLASSIFICATION_TYPE": "U", "NORAD_CAT_ID": 30288, "ELEMENT_SET_NO": 999, "REV_AT_EPOCH": 97633, "BSTAR": 0.0014010299, "MEAN_MOTION_DOT": 3.766e-05, "MEAN_MOTION_DDOT": 0}, "tle": {"line1": "1 30288U 99025YZ  25351.20428375  .00003766  00000+0  14010-2 0  9992", "line2": "2 30288  99.3959  73.2269 0020949 307.9744 106.2583 14.32625035976338"}}, "geometry": {"type": "Point", "coordinates": [83.92609743240448, -46.687075182172734]}}, {"type": "Feature", "properties": {"norad_id": 30289, "name": "FENGYUN 1C DEB", "group": "fengyun-1c-debris", "lat": -38.858334478115154, "lon": 95.6006791526553, "alt_km": 785.143583592655, "timestamp": "2025-12-17T17:50:19.526023+00:00", "meta": {"OBJECT_NAME": "FENGYUN 1C DEB", "OBJECT_ID": "1999-025ZA", "EPOCH": "2025-12-17T04:49:39.933696", "MEAN_MOTION": 14.25864905, "ECCENTRICITY": 0.00375253, "INCLINATION": 98.9271, "RA_OF_ASC_NODE": 87.7732, "ARG_OF_PERICENTER": 316.6497, "MEAN_ANOMALY": 102.752, "EPHEMERIS_TYPE": 0, "CLASSIFICATION_TYPE": "U", "NORAD_CAT_ID": 30289, "ELEMENT_SET_NO": 999, "REV_AT_EPOCH": 97145, "BSTAR": 0.0015990294, "MEAN_MOTION_DOT": 3.789e-05, "MEAN_MOTION_DDOT": 0}, "tle": {"line1": "1 30289U 99025ZA  25351.20115664  .00003789  00000+0  15990-2 0  9990", "line2": "2 30289  98.9271  87.7732 0037525 316.6497 102.7520 14.25864905971459"}}, "geometry": {"type": "Point", "coordinates": [95.6006791526553, -38.858334478115154]}}, {"type": "Feature", "properties": {"norad_id": 30290, "name": "FENGYUN 1C DEB", "group": "fengyun-1c-debris", "lat": -45.532310884549624, "lon": -96.87472552221497, "alt_km": 662.3430220649216, "timestamp": "2025-12-17T17:50:19.526033+00:00", "meta": {"OBJECT_NAME": "FENGYUN 1C DEB", "OBJECT_ID": "1999-025ZB", "EPOCH": "2025-12-17T05:43:31.645344", "MEAN_MOTION": 14.75192399, "ECCENTRICITY": 0.00165717, "INCLINATION": 102.622, "RA_OF_ASC_NODE": 95.5378, "ARG_OF_PERICENTER": 34.5663, "MEAN_ANOMALY": 33.3165, "EPHEMERIS_TYPE": 0, "CLASSIFICATION_TYPE": "U", "NORAD_CAT_ID": 30290, "ELEMENT_SET_NO": 999, "REV_AT_EPOCH": 97945, "BSTAR": 0.0038492043, "MEAN_MOTION_DOT": 0.00026081, "MEAN_MOTION_DDOT": 0}, "tle": {"line1": "1 30290U 99025ZB  25351.23856071  .00026081  00000+0  38492-2 0  9991", "line2": "2 30290 102.6220  95.5378 0016571  34.5663  33.3165 14.75192399979458"}}, "geometry": {"type": "Point", "coordinates": [-96.87472552221497, -45.532310884549624]}}, {"type": "Feature", "properties": {"norad_id": 30291, "name": "FENGYUN 1C DEB", "group": "fengyun-1c-debris", "lat": -42.658117030253855, "lon": -113.41422452272843, "alt_km": 659.9941386782557, "timestamp": "2025-12-17T17:50:19.526043+00:00", "meta": {"OBJECT_NAME": "FENGYUN 1C DEB", "OBJECT_ID": "1999-025ZC", "EPOCH": "2025-12-17T03:52:52.549248", "MEAN_MOTION": 14.55345597, "ECCENTRICITY": 0.01114021, "INCLINATION": 97.233, "RA_OF_ASC_NODE": 239.3617, "ARG_OF_PERICENTER": 5.2968, "MEAN_ANOMALY": 147.5196, "EPHEMERIS_TYPE": 0, "CLASSIFICATION_TYPE": "U", "NORAD_CAT_ID": 30291, "ELEMENT_SET_NO": 999, "REV_AT_EPOCH": 97772, "BSTAR": 0.0022147919, "MEAN_MOTION_DOT": 0.00010417, "MEAN_MOTION_DDOT": 0}, "tle": {"line1": "1 30291U 99025ZC  25351.16171932  .00010417  00000+0  22148-2 0  9997", "line2": "2 30291  97.2330 239.3617 0111402   5.2968 147.5196 14.55345597977724"}}, "geometry": {"type": "Point", "coordinates": [-113.41422452272843, -42.658117030253855]}}, {"type": "Feature", "properties": {"norad_id": 30293, "name": "FENGYUN 1C DEB", "group": "fengyun-1c-debris", "lat": 75.8542361103086, "lon": 43.46069057286494, "alt_km": 667.2127469580219, "timestamp": "2025-12-17T17:50:19.526054+00:00", "meta": {"OBJECT_NAME": "FENGYUN 1C DEB", "OBJECT_ID": "1999-025ZE", "EPOCH": "2025-12-16T11:49:44.766336", "MEAN_MOTION": 14.48966848, "ECCENTRICITY": 0.0076773, "INCLINATION": 99.2548, "RA_OF_ASC_NODE": 181.7784, "ARG_OF_PERICENTER": 103.6017, "MEAN_ANOMALY": 318.3575, "EPHEMERIS_TYPE": 0, "CLASSIFICATION_TYPE": "U", "NORAD_CAT_ID": 30293, "ELEMENT_SET_NO": 999, "REV_AT_EPOCH": 99031, "BSTAR": 0.00055731386, "MEAN_MOTION_DOT": 2.137e-05, "MEAN_MOTION_DDOT": 0}, "tle": {"line1": "1 30293U 99025ZE  25350.49287924  .00002137  00000+0  55731-3 0  9998", "line2": "2 30293  99.2548 181.7784 0076773 103.6017 318.3575 14.48966848990312"}}, "geometry": {"type": "Point", "coordinates": [43.46069057286494, 75.8542361103086]}}, {"type": "Feature", "properties": {"norad_id": 30294, "name": "FENGYUN 1C DEB", "group": "fengyun-1c-debris", "lat": 49.868105386473744, "lon": 169.86945141547756, "alt_km": 907.0228887526619, "timestamp": "2025-12-17T17:50:19.526064+00:00", "meta": {"OBJECT_NAME": "FENGYUN 1C DEB", "OBJECT_ID": "1999-025ZF", "EPOCH": "2025-12-16T21:26:06.361152", "MEAN_MOTION": 14.34963554, "ECCENTRICITY": 0.01973292, "INCLINATION": 98.3557, "RA_OF_ASC_NODE": 339.006, "ARG_OF_PERICENTER": 297.219, "MEAN_ANOMALY": 123.447, "EPHEMERIS_TYPE": 0, "CLASSIFICATION_TYPE": "U", "NORAD_CAT_ID": 30294, "ELEMENT_SET_NO": 999, "REV_AT_EPOCH": 98596, "BSTAR": 0.00032470737, "MEAN_MOTION_DOT": 1.101e-05, "MEAN_MOTION_DDOT": 0}, "tle": {"line1": "1 30294U 99025ZF  25350.89312918  .00001101  00000+0  32471-3 0  9991", "line2": "2 30294  98.3557 339.0060 0197329 297.2190 123.4470 14.34963554985961"}}, "geometry": {"type": "Point", "coordinates": [169.86945141547756, 49.868105386473744]}}]}